EUTELSAT QUANTUM        
1 49056U 21069B   25223.91086438  .00000127  00000+0  00000+0 0  9993
2 49056   0.0511 285.1383 0002118 232.5410 178.5249  1.00271106 14821
EUTELSAT KONNECT VHTS   
1 53765U 22110A   25223.61228073  .00000018  00000+0  00000+0 0  9992
2 53765   0.0575 101.0133 0002700  33.5264  48.8853  1.00268561  3723
EUTELSAT HOTBIRD 13F    
1 54048U 22134A   25223.95746068  .00000088  00000+0  00000+0 0  9996
2 54048   0.0563 282.5049 0001889  78.9175 316.9018  1.00271311 10274
EUTELSAT HOTBIRD 13G    
1 54225U 22146A   25223.95746124  .00000088  00000+0  00000+0 0  9999
2 54225   0.0539 245.5787 0002094 293.9539 138.8081  1.00271121  4367
EUTELSAT 10B            
1 54259U 22157A   25223.75653140  .00000070  00000+0  00000+0 0  9992
2 54259   0.0489  96.9544 0002016  19.7478 126.1131  1.00277567  9919
EUTELSAT 36D            
1 59346U 24059A   25224.26127826  .00000157  00000+0  00000+0 0  9997
2 59346   0.0188 112.7813 0000270  44.6459 293.4391  1.00271091  5041
